STARLINK-30158          
1 57438U 23105J   25095.95275941 -.00000892  00000+0 -50983-4 0  9990
2 57438  43.0033 297.0350 0001556 266.0507  94.0157 15.02521052 94755
STARLINK-30173          
1 57439U 23105K   25095.91668981  .00367846  00000+0  93766-2 0  9994
2 57439  42.9991 275.1273 0011942 302.1645 228.9383 15.37276349  5905
STARLINK-30159          
1 57440U 23105L   25095.87961249  .00005316  00000+0  40815-3 0  9993
2 57440  43.0011 297.3462 0001093 267.5565  92.5152 15.02547217 94587
STARLINK-30160          
1 57441U 23105M   25095.61037591  .00000958  00000+0  85995-4 0  9996
2 57441  43.0032 298.7666 0001586 273.8349  86.2312 15.02530772 94541
STARLINK-30146          
1 57442U 23105N   25095.93943029 -.00001270  00000+0 -78911-4 0  9994
2 57442  43.0069 296.9332 0002982 265.5058  94.5444 15.02530839 94810
STARLINK-30197          
1 57443U 23105P   25095.93610171  .00001366  00000+0  11614-3 0  9994
2 57443  43.0021 296.9092 0001069 267.6837  92.3883 15.02537438 94753
STARLINK-30181          
1 57444U 23105Q   25095.65687745 -.00000736  00000+0 -39407-4 0  9998
2 57444  43.0018 298.2585 0001650 282.2481  77.8176 15.02526336 94776
STARLINK-30215          
1 57445U 23105R   25095.92721646  .00002450  00000+0  19633-3 0  9999
2 57445  43.0023 296.8434 0001102 276.2113  83.8603 15.02545738 94596
STARLINK-30162          
1 57446U 23105S   25095.78679843 -.00001769  00000+0 -11590-3 0  9993
2 57446  43.0027 284.7736 0001241 272.0037  88.0663 15.02531393 94882
STARLINK-30178          
1 57447U 23105T   25095.92610006  .00002956  00000+0  23368-3 0  9999
2 57447  43.0004 296.8357 0000710 277.4766  82.5996 15.02550189 94757
STARLINK-30196          
1 57448U 23105U   25095.91613046 -.00000552  00000+0 -25792-4 0  9992
2 57448  43.0027 296.7605 0001139 273.3464  86.7248 15.02527584 94595
STARLINK-30225          
1 57449U 23105V   25095.91279676  .00001084  00000+0  95370-4 0  9998
2 57449  43.0052 296.7316 0002155 258.0320 102.0280 15.02523649 94814
STARLINK-30217          
1 57450U 23105W   25095.83663606  .00000327  00000+0  39261-4 0  9997
2 57450  43.0037 284.3372 0001391 263.4211  96.6473 15.02526086 94892
STARLINK-30216          
1 57451U 23105X   25095.90946954  .00000967  00000+0  86629-4 0  9996
2 57451  43.0027 296.7254 0001094 277.1924  82.8794 15.02534561 94598
STARLINK-30165          
1 57457U 23107A   25095.80485980  .00002806  00000+0  22258-3 0  9991
2 57457  43.0004  15.2056 0000390 292.7235  67.3566 15.02549784 94272
STARLINK-30140          
1 57458U 23107B   25095.80150934  .00005267  00000+0  40443-3 0  9990
2 57458  42.9979  15.1804 0000848 312.1137  47.9633 15.02555956 94286
STARLINK-30185          
1 57459U 23107C   25095.46581594  .00000761  00000+0  71356-4 0  9995
2 57459  43.0031  16.9634 0001056 276.1789  83.8933 15.02542375 94230
STARLINK-30077          
1 57460U 23107D   25095.92783885  .00004814  00000+0  37123-3 0  9991
2 57460  43.0028  14.4067 0000969 268.4187  91.6545 15.02531272 94307
STARLINK-30229          
1 57461U 23107E   25095.80819685  .00002227  00000+0  17986-3 0  9998
2 57461  42.9999  15.2261 0000595 344.5187  15.5637 15.02543069 94280
STARLINK-30088          
1 57462U 23107F   25095.45915795  .00005860  00000+0  44833-3 0  9996
2 57462  43.0038  16.9124 0001227 268.8790  91.1912 15.02550378 94236
STARLINK-30091          
1 57463U 23107G   25095.91784891  .00000731  00000+0  69153-4 0  9994
2 57463  43.0057  14.3316 0000587 279.6572  80.4204 15.02527456 94303
STARLINK-30115          
1 57464U 23107H   25095.91668981  .00102621  00000+0  25509-2 0  9992
2 57464  42.9908 350.1680 0030793 223.7886 253.3702 15.38758738  5902
STARLINK-30116          
1 57465U 23107J   25095.12121962  .00000397  00000+0  44443-4 0  9996
2 57465  43.0059  18.6734 0001339 264.4857  95.5833 15.02541441 94183
STARLINK-30092          
1 57467U 23107L   25095.77821978  .00002112  00000+0  17138-3 0  9990
2 57467  43.0066  15.0050 0001616 267.5019  92.5639 15.02541714 94282
STARLINK-30039          
1 57468U 23107M   25095.50898198  .00004237  00000+0  32839-3 0  9995
2 57468  43.0044  16.4227 0001371 258.0677 102.0012 15.02550333 94248
STARLINK-30171          
1 57469U 23107N   25095.83470999  .00004114  00000+0  31938-3 0  9990
2 57469  43.0058  14.5628 0002212 258.1256 101.9339 15.02543797 94298
STARLINK-30186          
1 57470U 23107P   25095.83801885  .00004235  00000+0  32826-3 0  9995
2 57470  43.0053  14.5875 0001249 243.8802 116.1912 15.02553430 94296
STARLINK-30190          
1 57471U 23107Q   25095.91668981  .00084390  00000+0  45434-2 0  9991
2 57471  43.0019  10.4927 0013075 206.4603 347.1654 15.13790298  5744
STARLINK-30204          
1 57472U 23107R   25095.49899951  .00000826  00000+0  76215-4 0  9993
2 57472  43.0039  16.3517 0001095 281.8004  78.2715 15.02534135 94245
STARLINK-30187          
1 57473U 23107S   25095.49564890 -.00001277  00000+0 -79411-4 0  9999
2 57473  43.0026  16.3157 0000761 292.9486  67.1276 15.02568352 94245
STARLINK-30110          
1 57474U 23107T   25095.47645263  .00044300  00000+0  24458-2 0  9993
2 57474  43.0056   6.0356 0008778 199.6542 160.3967 15.13217472 94360
STARLINK-30155          
1 57475U 23107U   25095.48566780  .00005673  00000+0  43469-3 0  9995
2 57475  43.0050  16.2468 0001293 280.4261  79.6436 15.02536743 94247
STARLINK-30161          
1 57476U 23107V   25095.81474129  .00003377  00000+0  26494-3 0  9996
2 57476  43.0058  14.4132 0001313 261.4994  98.5699 15.02539605 94295
STARLINK-30176          
1 57477U 23107W   25095.81251646  .00001125  00000+0  98317-4 0  9997
2 57477  43.0043  14.3981 0001417 272.6801  87.3879 15.02539656 94299
STARLINK-30154          
1 57495U 23113A   25095.90042169  .00000671  00000+0  64706-4 0  9992
2 57495  43.0036  53.1435 0000826 277.4585  82.6164 15.02529682 92685
STARLINK-30145          
1 57496U 23113B   25095.35194245  .00006466  00000+0  49336-3 0  9994
2 57496  43.0034  55.9226 0001224 284.1613  75.9093 15.02533140 92659
STARLINK-30226          
1 57497U 23113C   25095.61451969  .00000683  00000+0  65612-4 0  9994
2 57497  43.0043  54.4619 0001216 259.3106 100.7599 15.02546096 92700
STARLINK-30203          
1 57498U 23113D   25095.93691729  .00002484  00000+0  19888-3 0  9994
2 57498  43.0050  52.5736 0001329 260.3889  99.6803 15.02542752 92870
STARLINK-30169          
1 57499U 23113E   25095.90070429 -.00001857  00000+0 -12247-3 0  9997
2 57499  43.0052  40.4408 0001303 250.2928 109.7773 15.02520801 92835
STARLINK-30164          
1 57500U 23113F   25095.92691990  .00003223  00000+0  25344-3 0  9993
2 57500  43.0014  52.4935 0000621 265.3528  94.7244 15.02554641 92856
STARLINK-30072          
1 57501U 23113G   25095.92027785  .00001231  00000+0  10619-3 0  9995
2 57501  43.0018  52.4364 0000756 265.6216  94.4539 15.02536837 92742
STARLINK-30228          
1 57502U 23113H   25095.88370783  .00027619  00000+0  16955-2 0  9996
2 57502  43.0034  47.9475 0005172 151.2799 208.8331 15.09603448 92792
STARLINK-30230          
1 57503U 23113J   25095.93025845  .00002220  00000+0  17934-3 0  9999
2 57503  43.0052  52.5134 0001278 267.9600  92.1096 15.02539422 92746
STARLINK-30213          
1 57504U 23113K   25095.85059656  .00005654  00000+0  43310-3 0  9999
2 57504  43.0030  53.6246 0001169 276.4672  83.6037 15.02549117 92834
STARLINK-30227          
1 57505U 23113L   25095.89067868  .00001680  00000+0  13938-3 0  9996
2 57505  43.0043  40.0636 0001284 264.5530  95.5166 15.02544382 92992
STARLINK-30212          
1 57506U 23113M   25095.58133706  .00003932  00000+0  30574-3 0  9995
2 57506  43.0023  55.0494 0000308 329.6487  30.4337 15.02561891 92632
STARLINK-30219          
1 57507U 23113N   25095.24562621 -.00004355  00000+0 -30730-3 0  9997
2 57507  43.0036  56.8453 0001016 277.4978  82.5749 15.02559771 92744
STARLINK-30074          
1 57508U 23113P   25095.92360460  .00000863  00000+0  78913-4 0  9994
2 57508  43.0040  52.4640 0001214 265.5584  94.5119 15.02537986 92648
STARLINK-30082          
1 57509U 23113Q   25095.89708338 -.00001768  00000+0 -11583-3 0  9997
2 57509  43.0044  53.1290 0001673 257.4628 102.6027 15.02528300 92841
STARLINK-30153          
1 57510U 23113R   25095.89375018  .00001926  00000+0  15755-3 0  9993
2 57510  43.0052  53.1155 0001156 258.5971 101.4741 15.02543114 92739
STARLINK-30147          
1 57511U 23113S   25095.57135398  .00001245  00000+0  10721-3 0  9996
2 57511  43.0036  54.9887 0001103 274.4209  85.6507 15.02542342 92797
STARLINK-30157          
1 57512U 23113T   25095.84772398 -.00009371  00000+0 -68034-3 0  9994
2 57512  43.0037  27.0670 0004036 301.2974  58.7473 15.02483853 93140
STARLINK-30168          
1 57513U 23113U   25095.57469119  .00008367  00000+0  63389-3 0  9999
2 57513  43.0047  54.9850 0001102 290.0342  70.0382 15.02524990 92633
STARLINK-30231          
1 57514U 23113V   25095.89042275  .00003074  00000+0  24245-3 0  9993
2 57514  43.0019  53.0717 0000430 246.8289 113.2508 15.02544151 92841
STARLINK-30081          
1 57515U 23113W   25095.87711868  .00000421  00000+0  46214-4 0  9997
2 57515  43.0035  52.9933 0000736 286.5760  73.5002 15.02525144 92840
STARLINK-30149          
1 57516U 23113X   25095.93359619  .00003113  00000+0  24543-3 0  9998
2 57516  43.0032  52.5482 0001374 260.2268  99.8419 15.02535871 92755
STARLINK-30259          
1 57521U 23115A   25095.86747614  .00002007  00000+0  16362-3 0  9995
2 57521  43.0053  40.6579 0001634 254.0737 105.9925 15.02539197 92712
STARLINK-30256          
1 57522U 23115B   25095.53175178  .00000842  00000+0  77335-4 0  9993
2 57522  43.0050  42.4439 0000949 268.4445  91.6288 15.02548098 91440
STARLINK-30261          
1 57523U 23115C   25095.12955164 -.00005361  00000+0 -38180-3 0  9997
2 57523  43.0030  44.5801 0000496 270.0932  89.9853 15.02565485 91382
